[
    {
        "Altitude(m)": 571150.0583912936,
        "Argument of Periapsis(deg)": 0.006622991110713501,
        "Eccentricity": 0.0,
        "Inclination(deg)": 53.0,
        "Latitude(deg)": -51.35892587267869,
        "Longitude(deg)": -116.14983433055178,
        "Mean Anomaly(deg)": 257.3642928675775,
        "RAAN(deg)": 94.99014336852802,
        "Satellite Name": "Starlink Shell 1 433",
        "Satellite Number": 433,
        "Semi-Major Axis(m)": 6931778.249405717,
        "Time(s)": 190
    },
    {
        "Altitude(m)": 571216.6036042345,
        "Argument of Periapsis(deg)": 0.0069715695902247375,
        "Eccentricity": 0.0,
        "Inclination(deg)": 53.0,
        "Latitude(deg)": -51.52879899530701,
        "Longitude(deg)": -115.22911383854168,
        "Mean Anomaly(deg)": 257.9911240711343,
        "RAAN(deg)": 94.98962459845055,
        "Satellite Name": "Starlink Shell 1 433",
        "Satellite Number": 433,
        "Semi-Major Axis(m)": 6931778.249405717,
        "Time(s)": 200
    },
    {
        "Altitude(m)": 571279.9186375495,
        "Argument of Periapsis(deg)": 0.007320148069735974,
        "Eccentricity": 0.0,
        "Inclination(deg)": 53.0,
        "Latitude(deg)": -51.69072380966094,
        "Longitude(deg)": -114.30138832748594,
        "Mean Anomaly(deg)": 258.617955274691,
        "RAAN(deg)": 94.98910582837307,
        "Satellite Name": "Starlink Shell 1 433",
        "Satellite Number": 433,
        "Semi-Major Axis(m)": 6931778.249405717,
        "Time(s)": 210
    },
    {
        "Altitude(m)": 571339.9782441687,
        "Argument of Periapsis(deg)": 0.007668726549247212,
        "Eccentricity": 0.0,
        "Inclination(deg)": 53.0,
        "Latitude(deg)": -51.84459816330236,
        "Longitude(deg)": -113.3669089090098,
        "Mean Anomaly(deg)": 259.2447864782477,
        "RAAN(deg)": 94.9885870582956,
        "Satellite Name": "Starlink Shell 1 433",
        "Satellite Number": 433,
        "Semi-Major Axis(m)": 6931778.249405717,
        "Time(s)": 220
    },
    {
        "Altitude(m)": 571396.7584689629,
        "Argument of Periapsis(deg)": 0.00801730502875845,
        "Eccentricity": 0.0,
        "Inclination(deg)": 53.0,
        "Latitude(deg)": -51.99032338285202,
        "Longitude(deg)": -112.42594264669079,
        "Mean Anomaly(deg)": 259.8716176818045,
        "RAAN(deg)": 94.98806828821813,
        "Satellite Name": "Starlink Shell 1 433",
        "Satellite Number": 433,
        "Semi-Major Axis(m)": 6931778.249405717,
        "Time(s)": 230
    },
    {
        "Altitude(m)": 571450.2366591123,
        "Argument of Periapsis(deg)": 0.008365883508269684,
        "Eccentricity": 0.0,
        "Inclination(deg)": 53.0,
        "Latitude(deg)": -52.12780455410614,
        "Longitude(deg)": -111.47877181169312,
        "Mean Anomaly(deg)": 260.49844888536114,
        "RAAN(deg)": 94.98754951814067,
        "Satellite Name": "Starlink Shell 1 433",
        "Satellite Number": 433,
        "Semi-Major Axis(m)": 6931778.249405717,
        "Time(s)": 240
    },
    {
        "Altitude(m)": 571500.391473938,
        "Argument of Periapsis(deg)": 0.008714461987780921,
        "Eccentricity": 0.0,
        "Inclination(deg)": 53.0,
        "Latitude(deg)": -52.25695079921364,
        "Longitude(deg)": -110.52569456838307,
        "Mean Anomaly(deg)": 261.12528008891786,
        "RAAN(deg)": 94.98703074806319,
        "Satellite Name": "Starlink Shell 1 433",
        "Satellite Number": 433,
        "Semi-Major Axis(m)": 6931778.249405717,
        "Time(s)": 250
    },
    {
        "Altitude(m)": 571547.202894159,
        "Argument of Periapsis(deg)": 0.009063040467292158,
        "Eccentricity": 0.0,
        "Inclination(deg)": 53.0,
        "Latitude(deg)": -52.37767554923689,
        "Longitude(deg)": -109.56702406246103,
        "Mean Anomaly(deg)": 261.7521112924746,
        "RAAN(deg)": 94.98651197798571,
        "Satellite Name": "Starlink Shell 1 433",
        "Satellite Number": 433,
        "Semi-Major Axis(m)": 6931778.249405717,
        "Time(s)": 260
    },
    {
        "Altitude(m)": 571590.6522305254,
        "Argument of Periapsis(deg)": 0.009411618946803396,
        "Eccentricity": 0.0,
        "Inclination(deg)": 53.0,
        "Latitude(deg)": -52.48989681029646,
        "Longitude(deg)": -108.60308742414138,
        "Mean Anomaly(deg)": 262.3789424960313,
        "RAAN(deg)": 94.98599320790824,
        "Satellite Name": "Starlink Shell 1 433",
        "Satellite Number": 433,
        "Semi-Major Axis(m)": 6931778.249405717,
        "Time(s)": 270
    },
    {
        "Altitude(m)": 571630.7221319732,
        "Argument of Periapsis(deg)": 0.009760197426314633,
        "Eccentricity": 0.0,
        "Inclination(deg)": 53.0,
        "Latitude(deg)": -52.593537421694116,
        "Longitude(deg)": -107.63422619784916,
        "Mean Anomaly(deg)": 263.005773699588,
        "RAAN(deg)": 94.98547443783076,
        "Satellite Name": "Starlink Shell 1 433",
        "Satellite Number": 433,
        "Semi-Major Axis(m)": 6931778.249405717,
        "Time(s)": 280
    },
    {
        "Altitude(m)": 571667.396593095,
        "Argument of Periapsis(deg)": 0.01010877590582587,
        "Eccentricity": 0.0,
        "Inclination(deg)": 53.0,
        "Latitude(deg)": -52.688525304019585,
        "Longitude(deg)": -106.66079517533966,
        "Mean Anomaly(deg)": 263.6326049031447,
        "RAAN(deg)": 94.9849556677533,
        "Satellite Name": "Starlink Shell 1 433",
        "Satellite Number": 433,
        "Semi-Major Axis(m)": 6931778.249405717,
        "Time(s)": 290
    },
    {
        "Altitude(m)": 571700.6609610876,
        "Argument of Periapsis(deg)": 0.010457354385337106,
        "Eccentricity": 0.0,
        "Inclination(deg)": 53.0,
        "Latitude(deg)": -52.774793695652626,
        "Longitude(deg)": -105.68316114535588,
        "Mean Anomaly(deg)": 264.25943610670146,
        "RAAN(deg)": 94.98443689767583,
        "Satellite Name": "Starlink Shell 1 433",
        "Satellite Number": 433,
        "Semi-Major Axis(m)": 6931778.249405717,
        "Time(s)": 300
    },
    {
        "Altitude(m)": 571730.5019420843,
        "Argument of Periapsis(deg)": 0.010805932864848343,
        "Eccentricity": 0.0,
        "Inclination(deg)": 53.0,
        "Latitude(deg)": -52.85228137585335,
        "Longitude(deg)": -104.70170307590253,
        "Mean Anomaly(deg)": 264.8862673102582,
        "RAAN(deg)": 94.98391812759836,
        "Satellite Name": "Starlink Shell 1 433",
        "Satellite Number": 433,
        "Semi-Major Axis(m)": 6931778.249405717,
        "Time(s)": 310
    },
    {
        "Altitude(m)": 571756.9076069185,
        "Argument of Periapsis(deg)": 0.01115451134435958,
        "Eccentricity": 0.0,
        "Inclination(deg)": 53.0,
        "Latitude(deg)": -52.92093287277798,
        "Longitude(deg)": -103.71681070679186,
        "Mean Anomaly(deg)": -94.48690148618512,
        "RAAN(deg)": 94.98339935752087,
        "Satellite Name": "Starlink Shell 1 433",
        "Satellite Number": 433,
        "Semi-Major Axis(m)": 6931778.249405717,
        "Time(s)": 320
    },
    {
        "Altitude(m)": 571779.8673962889,
        "Argument of Periapsis(deg)": 0.011503089823870818,
        "Eccentricity": 0.0,
        "Inclination(deg)": 53.0,
        "Latitude(deg)": -52.980698654814674,
        "Longitude(deg)": -102.72888306976208,
        "Mean Anomaly(deg)": -93.8600702826284,
        "RAAN(deg)": 94.9828805874434,
        "Satellite Name": "Starlink Shell 1 433",
        "Satellite Number": 433,
        "Semi-Major Axis(m)": 6931778.249405717,
        "Time(s)": 330
    },
    {
        "Altitude(m)": 571799.3721253148,
        "Argument of Periapsis(deg)": 0.011851668303382053,
        "Eccentricity": 0.0,
        "Inclination(deg)": 53.0,
        "Latitude(deg)": -53.03153530373084,
        "Longitude(deg)": -101.73832845434703,
        "Mean Anomaly(deg)": -93.23323907907165,
        "RAAN(deg)": 94.98236181736593,
        "Satellite Name": "Starlink Shell 1 433",
        "Satellite Number": 433,
        "Semi-Major Axis(m)": 6931778.249405717,
        "Time(s)": 340
    },
    {
        "Altitude(m)": 571815.4139875317,
        "Argument of Periapsis(deg)": 0.012200246782893292,
        "Eccentricity": 0.0,
        "Inclination(deg)": 53.0,
        "Latitude(deg)": -53.073405668242984,
        "Longitude(deg)": -100.74556279988478,
        "Mean Anomaly(deg)": -92.60640787551499,
        "RAAN(deg)": 94.98184304728845,
        "Satellite Name": "Starlink Shell 1 433",
        "Satellite Number": 433,
        "Semi-Major Axis(m)": 6931778.249405717,
        "Time(s)": 350
    },
    {
        "Altitude(m)": 571827.9865582472,
        "Argument of Periapsis(deg)": 0.012548825262404526,
        "Eccentricity": 0.0,
        "Inclination(deg)": 53.0,
        "Latitude(deg)": -53.10627899675326,
        "Longitude(deg)": -99.75100803345974,
        "Mean Anomaly(deg)": -91.97957667195828,
        "RAAN(deg)": 94.98132427721099,
        "Satellite Name": "Starlink Shell 1 433",
        "Satellite Number": 433,
        "Semi-Major Axis(m)": 6931778.249405717,
        "Time(s)": 360
    },
    {
        "Altitude(m)": 571837.0847973379,
        "Argument of Periapsis(deg)": 0.012897403741915765,
        "Eccentricity": 0.0,
        "Inclination(deg)": 53.0,
        "Latitude(deg)": -53.130131048152414,
        "Longitude(deg)": -98.75509187427906,
        "Mean Anomaly(deg)": -91.35274546840158,
        "RAAN(deg)": 94.98080550713351,
        "Satellite Name": "Starlink Shell 1 433",
        "Satellite Number": 433,
        "Semi-Major Axis(m)": 6931778.249405717,
        "Time(s)": 370
    }
]